IRIDIUM 119             
1 42959U 17061E   24038.04364007  .00000074  00000+0  19295-4 0  9995
2 42959  86.3968  25.1050 0002085  82.2391 277.9042 14.34216838331383
IRIDIUM 107             
1 42960U 17061F   24037.99289633  .00000042  00000+0  77891-5 0  9993
2 42960  86.3967  25.1425 0001780  88.7175 271.4224 14.34216386331392
IRIDIUM 132             
1 42961U 17061G   24037.92946709  .00000463  00000+0  15817-3 0  9996
2 42961  86.3965  25.1541 0002041  88.4399 271.7030 14.34216755331372
IRIDIUM 136             
1 42962U 17061H   24037.96118541  .00000267  00000+0  88129-4 0  9995
2 42962  86.3970  25.1435 0002184  80.9613 279.1830 14.34217211331395
IRIDIUM 139             
1 42963U 17061J   24038.03729643  .00000230  00000+0  75089-4 0  9997
2 42963  86.3970  25.1599 0001926  90.6456 269.4960 14.34217381331410
IRIDIUM 125             
1 42964U 17061K   24038.02460953  .00000298  00000+0  99462-4 0  9998
2 42964  86.3972  25.2104 0001903  82.0097 278.1315 14.34217156331429
IRIDIUM 135             
1 43070U 17083A   24037.85920329  .00000164  00000+0  51543-4 0  9999
2 43070  86.4001 321.9984 0002262  95.2082 264.9372 14.34218545320699
IRIDIUM 138             
1 43071U 17083B   24037.88457275  .00000197  00000+0  63412-4 0  9992
2 43071  86.3989 321.7219 0001988  76.3470 283.7947 14.34218018320689
